QIANFAN-97              
1 66039U 25233G   26022.91626506  .00000079  00000+0  10340-3 0  9992
2 66039  88.9920  57.9028 0001913  90.8127 269.3243 13.50992661 13571
QIANFAN-98              
1 66040U 25233H   26022.11987656  .00000131  00000+0  12781-3 0  9992
2 66040  88.9921  57.7471 0013351 273.9584  86.0053 13.73017645 13594
QIANFAN-99              
1 66041U 25233J   26022.92859895  .00000092  00000+0  12442-3 0  9995
2 66041  88.9921  57.9047 0001853 102.8587 257.2772 13.50992475 13579
QIANFAN-100             
1 66042U 25233K   26022.92036739  .00000008  00000+0 -63935-5 0  9993
2 66042  88.9931  57.8162 0001943  90.0857 270.0517 13.50993708 13622
QIANFAN-101             
1 66043U 25233L   26022.90689999  .00000389  00000+0  15472-3 0  9996
2 66043  88.9920  57.2789 0012573 258.2207 101.7576 14.26699162 13916
QIANFAN-102             
1 66044U 25233M   26022.91212856 -.00076684  00000+0 -10679+0 0  9995
2 66044  88.9918  57.8303 0013240 279.0822  80.8835 13.58234917 13617
QIANFAN-103             
1 66045U 25233N   26022.94496161  .00000129  00000+0  18084-3 0  9993
2 66045  88.9921  57.9071 0001945  89.2109 270.9266 13.50987155 13579
QIANFAN-104             
1 66046U 25233P   26022.60503344  .00000117  00000+0  14098-3 0  9997
2 66046  88.9901  57.8432 0012969 271.2544  88.7127 13.59722012 13582
